<?xml version="1.0" encoding="UTF-8"?>
<ndm xmlns:xsi="http://www.w3.org/2001/XMLSchema-instance" xsi:noNamespaceSchemaLocation="https://sanaregistry.org/r/ndmxml_unqualified/ndmxml-2.0.0-master-2.0.xsd">
<omm id="CCSDS_OMM_VERS" version="2.0">
<header><CREATION_DATE/><ORIGINATOR/></header><body><segment><metadata><OBJECT_NAME>IRIDIUM 7</OBJECT_NAME><OBJECT_ID>1997-020B</OBJECT_ID><CENTER_NAME>EARTH</CENTER_NAME><REF_FRAME>TEME</REF_FRAME><TIME_SYSTEM>UTC</TIME_SYSTEM><MEAN_ELEMENT_THEORY>SGP4</MEAN_ELEMENT_THEORY></metadata><data><meanElements><EPOCH>2024-07-02T20:16:53.733504</EPOCH><MEAN_MOTION>14.35275095</MEAN_MOTION><ECCENTRICITY>.000209</ECCENTRICITY><INCLINATION>86.3969</INCLINATION><RA_OF_ASC_NODE>323.2730</RA_OF_ASC_NODE><ARG_OF_PERICENTER>99.4503</ARG_OF_PERICENTER><MEAN_ANOMALY>260.6929</MEAN_ANOMALY></meanElements><tleParameters><EPHEMERIS_TYPE>0</EPHEMERIS_TYPE><CLASSIFICATION_TYPE>U</CLASSIFICATION_TYPE><NORAD_CAT_ID>24793</NORAD_CAT_ID><ELEMENT_SET_NO>999</ELEMENT_SET_NO><REV_AT_EPOCH>42199</REV_AT_EPOCH><BSTAR>.24828E-3</BSTAR><MEAN_MOTION_DOT>.73E-5</MEAN_MOTION_DOT><MEAN_MOTION_DDOT>0</MEAN_MOTION_DDOT></tleParameters></data></segment></body></omm>
<omm id="CCSDS_OMM_VERS" version="2.0">
<header><CREATION_DATE/><ORIGINATOR/></header><body><segment><metadata><OBJECT_NAME>IRIDIUM 5</OBJECT_NAME><OBJECT_ID>1997-020D</OBJECT_ID><CENTER_NAME>EARTH</CENTER_NAME><REF_FRAME>TEME</REF_FRAME><TIME_SYSTEM>UTC</TIME_SYSTEM><MEAN_ELEMENT_THEORY>SGP4</MEAN_ELEMENT_THEORY></metadata><data><meanElements><EPOCH>2024-07-02T14:44:49.352640</EPOCH><MEAN_MOTION>14.88083246</MEAN_MOTION><ECCENTRICITY>.0118964</ECCENTRICITY><INCLINATION>86.3920</INCLINATION><RA_OF_ASC_NODE>244.0142</RA_OF_ASC_NODE><ARG_OF_PERICENTER>308.1835</ARG_OF_PERICENTER><MEAN_ANOMALY>50.8720</MEAN_ANOMALY></meanElements><tleParameters><EPHEMERIS_TYPE>0</EPHEMERIS_TYPE><CLASSIFICATION_TYPE>U</CLASSIFICATION_TYPE><NORAD_CAT_ID>24795</NORAD_CAT_ID><ELEMENT_SET_NO>999</ELEMENT_SET_NO><REV_AT_EPOCH>43336</REV_AT_EPOCH><BSTAR>.34629E-3</BSTAR><MEAN_MOTION_DOT>.3661E-4</MEAN_MOTION_DOT><MEAN_MOTION_DDOT>0</MEAN_MOTION_DDOT></tleParameters></data></segment></body></omm>
<omm id="CCSDS_OMM_VERS" version="2.0">
<header><CREATION_DATE/><ORIGINATOR/></header><body><segment><metadata><OBJECT_NAME>IRIDIUM 4</OBJECT_NAME><OBJECT_ID>1997-020E</OBJECT_ID><CENTER_NAME>EARTH</CENTER_NAME><REF_FRAME>TEME</REF_FRAME><TIME_SYSTEM>UTC</TIME_SYSTEM><MEAN_ELEMENT_THEORY>SGP4</MEAN_ELEMENT_THEORY></metadata><data><meanElements><EPOCH>2024-07-02T20:12:13.680864</EPOCH><MEAN_MOTION>14.36201933</MEAN_MOTION><ECCENTRICITY>.0001994</ECCENTRICITY><INCLINATION>86.3965</INCLINATION><RA_OF_ASC_NODE>320.3829</RA_OF_ASC_NODE><ARG_OF_PERICENTER>93.8426</ARG_OF_PERICENTER><MEAN_ANOMALY>266.2999</MEAN_ANOMALY></meanElements><tleParameters><EPHEMERIS_TYPE>0</EPHEMERIS_TYPE><CLASSIFICATION_TYPE>U</CLASSIFICATION_TYPE><NORAD_CAT_ID>24796</NORAD_CAT_ID><ELEMENT_SET_NO>999</ELEMENT_SET_NO><REV_AT_EPOCH>42234</REV_AT_EPOCH><BSTAR>.24986E-3</BSTAR><MEAN_MOTION_DOT>.748E-5</MEAN_MOTION_DOT><MEAN_MOTION_DDOT>0</MEAN_MOTION_DDOT></tleParameters></data></segment></body></omm>
<omm id="CCSDS_OMM_VERS" version="2.0">
<header><CREATION_DATE/><ORIGINATOR/></header><body><segment><metadata><OBJECT_NAME>IRIDIUM 914</OBJECT_NAME><OBJECT_ID>1997-030A</OBJECT_ID><CENTER_NAME>EARTH</CENTER_NAME><REF_FRAME>TEME</REF_FRAME><TIME_SYSTEM>UTC</TIME_SYSTEM><MEAN_ELEMENT_THEORY>SGP4</MEAN_ELEMENT_THEORY></metadata><data><meanElements><EPOCH>2024-07-02T11:35:38.104224</EPOCH><MEAN_MOTION>14.40065775</MEAN_MOTION><ECCENTRICITY>.0000851</ECCENTRICITY><INCLINATION>86.3947</INCLINATION><RA_OF_ASC_NODE>330.1685</RA_OF_ASC_NODE><ARG_OF_PERICENTER>38.4264</ARG_OF_PERICENTER><MEAN_ANOMALY>321.6995</MEAN_ANOMALY></meanElements><tleParameters><EPHEMERIS_TYPE>0</EPHEMERIS_TYPE><CLASSIFICATION_TYPE>U</CLASSIFICATION_TYPE><NORAD_CAT_ID>24836</NORAD_CAT_ID><ELEMENT_SET_NO>999</ELEMENT_SET_NO><REV_AT_EPOCH>55678</REV_AT_EPOCH><BSTAR>.26878E-3</BSTAR><MEAN_MOTION_DOT>.867E-5</MEAN_MOTION_DOT><MEAN_MOTION_DDOT>0</MEAN_MOTION_DDOT></tleParameters></data></segment></body></omm>
<omm id="CCSDS_OMM_VERS" version="2.0">
<header><CREATION_DATE/><ORIGINATOR/></header><body><segment><metadata><OBJECT_NAME>IRIDIUM 16</OBJECT_NAME><OBJECT_ID>1997-030F</OBJECT_ID><CENTER_NAME>EARTH</CENTER_NAME><REF_FRAME>TEME</REF_FRAME><TIME_SYSTEM>UTC</TIME_SYSTEM><MEAN_ELEMENT_THEORY>SGP4</MEAN_ELEMENT_THEORY></metadata><data><meanElements><EPOCH>2024-07-02T13:13:23.955744</EPOCH><MEAN_MOTION>14.37954641</MEAN_MOTION><ECCENTRICITY>.0003985</ECCENTRICITY><INCLINATION>86.4042</INCLINATION><RA_OF_ASC_NODE>352.1545</RA_OF_ASC_NODE><ARG_OF_PERICENTER>112.2601</ARG_OF_PERICENTER><MEAN_ANOMALY>247.9020</MEAN_ANOMALY></meanElements><tleParameters><EPHEMERIS_TYPE>0</EPHEMERIS_TYPE><CLASSIFICATION_TYPE>U</CLASSIFICATION_TYPE><NORAD_CAT_ID>24841</NORAD_CAT_ID><ELEMENT_SET_NO>999</ELEMENT_SET_NO><REV_AT_EPOCH>41674</REV_AT_EPOCH><BSTAR>.26613E-3</BSTAR><MEAN_MOTION_DOT>.823E-5</MEAN_MOTION_DOT><MEAN_MOTION_DDOT>0</MEAN_MOTION_DDOT></tleParameters></data></segment></body></omm>
<omm id="CCSDS_OMM_VERS" version="2.0">
<header><CREATION_DATE/><ORIGINATOR/></header><body><segment><metadata><OBJECT_NAME>IRIDIUM 911</OBJECT_NAME><OBJECT_ID>1997-030G</OBJECT_ID><CENTER_NAME>EARTH</CENTER_NAME><REF_FRAME>TEME</REF_FRAME><TIME_SYSTEM>UTC</TIME_SYSTEM><MEAN_ELEMENT_THEORY>SGP4</MEAN_ELEMENT_THEORY></metadata><data><meanElements><EPOCH>2024-07-02T12:35:18.198816</EPOCH><MEAN_MOTION>14.46607492</MEAN_MOTION><ECCENTRICITY>.0014343</ECCENTRICITY><INCLINATION>86.4468</INCLINATION><RA_OF_ASC_NODE>351.2782</RA_OF_ASC_NODE><ARG_OF_PERICENTER>174.7782</ARG_OF_PERICENTER><MEAN_ANOMALY>185.3573</MEAN_ANOMALY></meanElements><tleParameters><EPHEMERIS_TYPE>0</EPHEMERIS_TYPE><CLASSIFICATION_TYPE>U</CLASSIFICATION_TYPE><NORAD_CAT_ID>24842</NORAD_CAT_ID><ELEMENT_SET_NO>999</ELEMENT_SET_NO><REV_AT_EPOCH>42451</REV_AT_EPOCH><BSTAR>.29772E-3</BSTAR><MEAN_MOTION_DOT>.1095E-4</MEAN_MOTION_DOT><MEAN_MOTION_DDOT>0</MEAN_MOTION_DDOT></tleParameters></data></segment></body></omm>
<omm id="CCSDS_OMM_VERS" version="2.0">
<header><CREATION_DATE/><ORIGINATOR/></header><body><segment><metadata><OBJECT_NAME>IRIDIUM 17</OBJECT_NAME><OBJECT_ID>1997-034B</OBJECT_ID><CENTER_NAME>EARTH</CENTER_NAME><REF_FRAME>TEME</REF_FRAME><TIME_SYSTEM>UTC</TIME_SYSTEM><MEAN_ELEMENT_THEORY>SGP4</MEAN_ELEMENT_THEORY></metadata><data><meanElements><EPOCH>2024-07-02T14:23:08.165184</EPOCH><MEAN_MOTION>14.37047050</MEAN_MOTION><ECCENTRICITY>.0003764</ECCENTRICITY><INCLINATION>86.3957</INCLINATION><RA_OF_ASC_NODE>21.7187</RA_OF_ASC_NODE><ARG_OF_PERICENTER>83.6323</ARG_OF_PERICENTER><MEAN_ANOMALY>276.5303</MEAN_ANOMALY></meanElements><tleParameters><EPHEMERIS_TYPE>0</EPHEMERIS_TYPE><CLASSIFICATION_TYPE>U</CLASSIFICATION_TYPE><NORAD_CAT_ID>24870</NORAD_CAT_ID><ELEMENT_SET_NO>999</ELEMENT_SET_NO><REV_AT_EPOCH>41336</REV_AT_EPOCH><BSTAR>.23492E-3</BSTAR><MEAN_MOTION_DOT>.716E-5</MEAN_MOTION_DOT><MEAN_MOTION_DDOT>0</MEAN_MOTION_DDOT></tleParameters></data></segment></body></omm>
<omm id="CCSDS_OMM_VERS" version="2.0">
<header><CREATION_DATE/><ORIGINATOR/></header><body><segment><metadata><OBJECT_NAME>IRIDIUM 920</OBJECT_NAME><OBJECT_ID>1997-034C</OBJECT_ID><CENTER_NAME>EARTH</CENTER_NAME><REF_FRAME>TEME</REF_FRAME><TIME_SYSTEM>UTC</TIME_SYSTEM><MEAN_ELEMENT_THEORY>SGP4</MEAN_ELEMENT_THEORY></metadata><data><meanElements><EPOCH>2024-07-02T13:38:25.865088</EPOCH><MEAN_MOTION>14.40764327</MEAN_MOTION><ECCENTRICITY>.0012618</ECCENTRICITY><INCLINATION>86.3980</INCLINATION><RA_OF_ASC_NODE>1.7783</RA_OF_ASC_NODE><ARG_OF_PERICENTER>146.5470</ARG_OF_PERICENTER><MEAN_ANOMALY>213.6529</MEAN_ANOMALY></meanElements><tleParameters><EPHEMERIS_TYPE>0</EPHEMERIS_TYPE><CLASSIFICATION_TYPE>U</CLASSIFICATION_TYPE><NORAD_CAT_ID>24871</NORAD_CAT_ID><ELEMENT_SET_NO>999</ELEMENT_SET_NO><REV_AT_EPOCH>41622</REV_AT_EPOCH><BSTAR>.23974E-3</BSTAR><MEAN_MOTION_DOT>.787E-5</MEAN_MOTION_DOT><MEAN_MOTION_DDOT>0</MEAN_MOTION_DDOT></tleParameters></data></segment></body></omm>

</ndm>
