IRIDIUM 7               
1 24793U 97020B   24184.84506636  .00000730  00000+0  24828-3 0  9996
2 24793  86.3969 323.2730 0002090  99.4503 260.6929 14.35275095421999
IRIDIUM 5               
1 24795U 97020D   24184.61446010  .00003661  00000+0  34629-3 0  9998
2 24795  86.3920 244.0142 0118964 308.1835  50.8720 14.88083246433366
IRIDIUM 4               
1 24796U 97020E   24184.84182501  .00000748  00000+0  24986-3 0  9994
2 24796  86.3965 320.3829 0001994  93.8426 266.2999 14.36201933422349
IRIDIUM 914             
1 24836U 97030A   24184.48307991  .00000867  00000+0  26878-3 0  9996
2 24836  86.3947 330.1685 0000851  38.4264 321.6995 14.40065775556784
IRIDIUM 16              
1 24841U 97030F   24184.55097171  .00000823  00000+0  26613-3 0  9995
2 24841  86.4042 352.1545 0003985 112.2601 247.9020 14.37954641416748
IRIDIUM 911             
1 24842U 97030G   24184.52451619  .00001095  00000+0  29772-3 0  9995
2 24842  86.4468 351.2782 0014343 174.7782 185.3573 14.46607492424518
IRIDIUM 17              
1 24870U 97034B   24184.59940006  .00000716  00000+0  23492-3 0  9992
2 24870  86.3957  21.7187 0003764  83.6323 276.5303 14.37047050413366
IRIDIUM 920             
1 24871U 97034C   24184.56835492  .00000787  00000+0  23974-3 0  9995
2 24871  86.3980   1.7783 0012618 146.5470 213.6529 14.40764327416220
